{
    "links": {
        "self": "http://www.neowsapp.com/rest/v1/neo/3689347?api_key=iIulBulltgU6a56xZRHN4H3l9WmuAYTsLGpBGhQ2"
    },
    "id": "3689347",
    "neo_reference_id": "3689347",
    "name": "(2014 SL142)",
    "designation": "2014 SL142",
    "nasa_jpl_url": "http://ssd.jpl.nasa.gov/sbdb.cgi?sstr=3689347",
    "absolute_magnitude_h": 22.7,
    "estimated_diameter": {
        "kilometers": {
            "estimated_diameter_min": 0.0766575574,
            "estimated_diameter_max": 0.1714115092
        },
        "meters": {
            "estimated_diameter_min": 76.6575573531,
            "estimated_diameter_max": 171.4115092306
        },
        "miles": {
            "estimated_diameter_min": 0.0476327831,
            "estimated_diameter_max": 0.1065101409
        },
        "feet": {
            "estimated_diameter_min": 251.5011804664,
            "estimated_diameter_max": 562.3737359442
        }
    },
    "is_potentially_hazardous_asteroid": false,
    "close_approach_data": [
        {
            "close_approach_date": "2014-09-24",
            "close_approach_date_full": "2014-Sep-24 08:33",
            "epoch_date_close_approach": 1411547580000,
            "relative_velocity": {
                "kilometers_per_second": "3.1741995853",
                "kilometers_per_hour": "11427.1185071333",
                "miles_per_hour": "7100.3670523907"
            },
            "miss_distance": {
                "astronomical": "0.281569005",
                "lunar": "109.530342945",
                "kilometers": "42122123.40601935",
                "miles": "26173473.80439303"
            },
            "orbiting_body": "Earth"
        }
    ],
    "orbital_data": {
        "orbit_id": "10",
        "orbit_determination_date": "2017-04-06 08:38:36",
        "first_observation_date": "2014-09-19",
        "last_observation_date": "2014-11-10",
        "data_arc_in_days": 52,
        "observations_used": 27,
        "orbit_uncertainty": "6",
        "minimum_orbit_intersection": ".266991",
        "jupiter_tisserand_invariant": "3.560",
        "epoch_osculation": "2459000.5",
        "eccentricity": ".4194919379741601",
        "semi_major_axis": "2.175705292823824",
        "inclination": "5.528231984955585",
        "ascending_node_longitude": "325.4717119863498",
        "orbital_period": "1172.191395855947",
        "perihelion_distance": "1.26301446307652",
        "perihelion_argument": "36.8705284707119",
        "aphelion_distance": "3.088396122571127",
        "perihelion_time": "2459267.813818535084",
        "mean_anomaly": "277.9033603105746",
        "mean_motion": ".3071170811121028",
        "equinox": "J2000",
        "orbit_class": {
            "orbit_class_type": "AMO",
            "orbit_class_description": "Near-Earth asteroid orbits similar to that of 1221 Amor",
            "orbit_class_range": "1.017 AU < q (perihelion) < 1.3 AU"
        }
    },
    "is_sentry_object": false
}